[{"OBJECT_NAME":"STARLINK-4459","OBJECT_ID":"2022-105Y","EPOCH":"2026-03-09T16:23:57.437088","MEAN_MOTION":15.05648919,"ECCENTRICITY":0.00023334,"INCLINATION":97.6028,"RA_OF_ASC_NODE":311.2495,"ARG_OF_PERICENTER":79.6018,"MEAN_ANOMALY":280.5472,"EPHEMERIS_TYPE":0,"CLASSIFICATION_TYPE":"U","NORAD_CAT_ID":53670,"ELEMENT_SET_NO":999,"REV_AT_EPOCH":19330,"BSTAR":5.6703135e-5,"MEAN_MOTION_DOT":7.57e-6,"MEAN_MOTION_DDOT":0},{"OBJECT_NAME":"SL-14 DEB","OBJECT_ID":"1989-080E","EPOCH":"2026-03-09T05:35:00.617856","MEAN_MOTION":12.9728574,"ECCENTRICITY":0.09478457,"INCLINATION":82.5007,"RA_OF_ASC_NODE":133.4407,"ARG_OF_PERICENTER":247.0746,"MEAN_ANOMALY":170.9187,"EPHEMERIS_TYPE":0,"CLASSIFICATION_TYPE":"U","NORAD_CAT_ID":20129,"ELEMENT_SET_NO":999,"REV_AT_EPOCH":68960,"BSTAR":0.0012016676,"MEAN_MOTION_DOT":3.131e-5,"MEAN_MOTION_DDOT":0}]
